CCSDS_OMM_VERS = 2.0
CREATION_DATE  = 
ORIGINATOR     = 

OBJECT_NAME    = UNKNOWN
OBJECT_ID      = 
CENTER_NAME    = EARTH
REF_FRAME      = TEME
TIME_SYSTEM    = UTC
MEAN_ELEMENT_THEORY = SGP/SGP4

EPOCH          = 2026-02-23T00:44:24.848160
MEAN_MOTION    = 14.10028091
ECCENTRICITY   = .0086539
INCLINATION    = 89.9958
RA_OF_ASC_NODE = 267.8912
ARG_OF_PERICENTER = 350.0810
MEAN_ANOMALY   = 9.8663

EPHEMERIS_TYPE = 0
CLASSIFICATION_TYPE = U
NORAD_CAT_ID   = 87335
ELEMENT_SET_NO = 999
REV_AT_EPOCH   = 39715
BSTAR          = .10633E-1
MEAN_MOTION_DOT = .19471E-3
MEAN_MOTION_DDOT = 0

CCSDS_OMM_VERS = 2.0
CREATION_DATE  = 
ORIGINATOR     = 

OBJECT_NAME    = UNKNOWN
OBJECT_ID      = 
CENTER_NAME    = EARTH
REF_FRAME      = TEME
TIME_SYSTEM    = UTC
MEAN_ELEMENT_THEORY = SGP/SGP4

EPOCH          = 2026-02-24T13:57:22.147776
MEAN_MOTION    = 13.96719012
ECCENTRICITY   = .0059263
INCLINATION    = 82.7530
RA_OF_ASC_NODE = 1.8460
ARG_OF_PERICENTER = 115.4684
MEAN_ANOMALY   = 245.2632

EPHEMERIS_TYPE = 0
CLASSIFICATION_TYPE = U
NORAD_CAT_ID   = 87405
ELEMENT_SET_NO = 999
REV_AT_EPOCH   = 62146
BSTAR          = .17466E-2
MEAN_MOTION_DOT = .2474E-4
MEAN_MOTION_DDOT = 0

CCSDS_OMM_VERS = 2.0
CREATION_DATE  = 
ORIGINATOR     = 

OBJECT_NAME    = UNKNOWN
OBJECT_ID      = 
CENTER_NAME    = EARTH
REF_FRAME      = TEME
TIME_SYSTEM    = UTC
MEAN_ELEMENT_THEORY = SGP/SGP4

EPOCH          = 2026-02-24T15:20:34.405440
MEAN_MOTION    = 14.30520390
ECCENTRICITY   = .0070183
INCLINATION    = 65.7821
RA_OF_ASC_NODE = 134.0508
ARG_OF_PERICENTER = 260.5614
MEAN_ANOMALY   = 249.1285

EPHEMERIS_TYPE = 0
CLASSIFICATION_TYPE = U
NORAD_CAT_ID   = 87426
ELEMENT_SET_NO = 999
REV_AT_EPOCH   = 63315
BSTAR          = .16996E-2
MEAN_MOTION_DOT = .4468E-4
MEAN_MOTION_DDOT = 0

CCSDS_OMM_VERS = 2.0
CREATION_DATE  = 
ORIGINATOR     = 

OBJECT_NAME    = UNKNOWN
OBJECT_ID      = 
CENTER_NAME    = EARTH
REF_FRAME      = TEME
TIME_SYSTEM    = UTC
MEAN_ELEMENT_THEORY = SGP/SGP4

EPOCH          = 2026-02-24T12:57:05.458464
MEAN_MOTION    = 13.90844517
ECCENTRICITY   = .006395
INCLINATION    = 100.4518
RA_OF_ASC_NODE = 276.1817
ARG_OF_PERICENTER = 12.5857
MEAN_ANOMALY   = 347.6877

EPHEMERIS_TYPE = 0
CLASSIFICATION_TYPE = U
NORAD_CAT_ID   = 87448
ELEMENT_SET_NO = 999
REV_AT_EPOCH   = 61949
BSTAR          = .11075E-2
MEAN_MOTION_DOT = .1355E-4
MEAN_MOTION_DDOT = 0

CCSDS_OMM_VERS = 2.0
CREATION_DATE  = 
ORIGINATOR     = 

OBJECT_NAME    = UNKNOWN
OBJECT_ID      = 
CENTER_NAME    = EARTH
REF_FRAME      = TEME
TIME_SYSTEM    = UTC
MEAN_ELEMENT_THEORY = SGP/SGP4

EPOCH          = 2026-02-22T00:08:45.737952
MEAN_MOTION    = 14.15044008
ECCENTRICITY   = .0509514
INCLINATION    = 65.7710
RA_OF_ASC_NODE = 261.5960
ARG_OF_PERICENTER = 328.3661
MEAN_ANOMALY   = 28.7697

EPHEMERIS_TYPE = 0
CLASSIFICATION_TYPE = U
NORAD_CAT_ID   = 87456
ELEMENT_SET_NO = 999
REV_AT_EPOCH   = 62157
BSTAR          = .55206E-3
MEAN_MOTION_DOT = .3756E-4
MEAN_MOTION_DDOT = 0

CCSDS_OMM_VERS = 2.0
CREATION_DATE  = 
ORIGINATOR     = 

OBJECT_NAME    = UNKNOWN
OBJECT_ID      = 
CENTER_NAME    = EARTH
REF_FRAME      = TEME
TIME_SYSTEM    = UTC
MEAN_ELEMENT_THEORY = SGP/SGP4

EPOCH          = 2026-02-12T14:12:24.257952
MEAN_MOTION    = 13.61840426
ECCENTRICITY   = .0675202
INCLINATION    = 65.8215
RA_OF_ASC_NODE = 82.0543
ARG_OF_PERICENTER = 276.9785
MEAN_ANOMALY   = 160.5715

EPHEMERIS_TYPE = 0
CLASSIFICATION_TYPE = U
NORAD_CAT_ID   = 87517
ELEMENT_SET_NO = 999
REV_AT_EPOCH   = 60133
BSTAR          = .15781E-2
MEAN_MOTION_DOT = .5788E-4
MEAN_MOTION_DDOT = 0

CCSDS_OMM_VERS = 2.0
CREATION_DATE  = 
ORIGINATOR     = 

OBJECT_NAME    = UNKNOWN
OBJECT_ID      = 
CENTER_NAME    = EARTH
REF_FRAME      = TEME
TIME_SYSTEM    = UTC
MEAN_ELEMENT_THEORY = SGP/SGP4

EPOCH          = 2026-02-21T19:34:44.355360
MEAN_MOTION    = 13.35608982
ECCENTRICITY   = .0060182
INCLINATION    = 99.6987
RA_OF_ASC_NODE = 268.1559
ARG_OF_PERICENTER = 90.2236
MEAN_ANOMALY   = 330.0173

EPHEMERIS_TYPE = 0
CLASSIFICATION_TYPE = U
NORAD_CAT_ID   = 87541
ELEMENT_SET_NO = 999
REV_AT_EPOCH   = 59152
BSTAR          = .13688E-3
MEAN_MOTION_DOT = .29E-6
MEAN_MOTION_DDOT = 0

CCSDS_OMM_VERS = 2.0
CREATION_DATE  = 
ORIGINATOR     = 

OBJECT_NAME    = UNKNOWN
OBJECT_ID      = 
CENTER_NAME    = EARTH
REF_FRAME      = TEME
TIME_SYSTEM    = UTC
MEAN_ELEMENT_THEORY = SGP/SGP4

EPOCH          = 2026-02-19T18:07:26.802912
MEAN_MOTION    = 13.53959633
ECCENTRICITY   = .0693457
INCLINATION    = 65.6693
RA_OF_ASC_NODE = 188.7923
ARG_OF_PERICENTER = 196.8794
MEAN_ANOMALY   = 160.8105

EPHEMERIS_TYPE = 0
CLASSIFICATION_TYPE = U
NORAD_CAT_ID   = 87553
ELEMENT_SET_NO = 999
REV_AT_EPOCH   = 60059
BSTAR          = .16107E-2
MEAN_MOTION_DOT = .5228E-4
MEAN_MOTION_DDOT = 0

CCSDS_OMM_VERS = 2.0
CREATION_DATE  = 
ORIGINATOR     = 

OBJECT_NAME    = UNKNOWN
OBJECT_ID      = 
CENTER_NAME    = EARTH
REF_FRAME      = TEME
TIME_SYSTEM    = UTC
MEAN_ELEMENT_THEORY = SGP/SGP4

EPOCH          = 2026-02-22T02:13:24.865824
MEAN_MOTION    = 13.28435157
ECCENTRICITY   = .0063398
INCLINATION    = 101.7617
RA_OF_ASC_NODE = 282.9717
ARG_OF_PERICENTER = 233.9262
MEAN_ANOMALY   = 125.5970

EPHEMERIS_TYPE = 0
CLASSIFICATION_TYPE = U
NORAD_CAT_ID   = 87557
ELEMENT_SET_NO = 999
REV_AT_EPOCH   = 57450
BSTAR          = .71201E-2
MEAN_MOTION_DOT = .3231E-4
MEAN_MOTION_DDOT = 0

CCSDS_OMM_VERS = 2.0
CREATION_DATE  = 
ORIGINATOR     = 

OBJECT_NAME    = UNKNOWN
OBJECT_ID      = 
CENTER_NAME    = EARTH
REF_FRAME      = TEME
TIME_SYSTEM    = UTC
MEAN_ELEMENT_THEORY = SGP/SGP4

EPOCH          = 2026-02-23T15:28:02.572608
MEAN_MOTION    = 12.32165753
ECCENTRICITY   = .0175967
INCLINATION    = 101.9977
RA_OF_ASC_NODE = 115.1379
ARG_OF_PERICENTER = 159.8358
MEAN_ANOMALY   = 354.3690

EPHEMERIS_TYPE = 0
CLASSIFICATION_TYPE = U
NORAD_CAT_ID   = 87561
ELEMENT_SET_NO = 999
REV_AT_EPOCH   = 55141
BSTAR          = .53876E-4
MEAN_MOTION_DOT = -.36E-6
MEAN_MOTION_DDOT = 0

CCSDS_OMM_VERS = 2.0
CREATION_DATE  = 
ORIGINATOR     = 

OBJECT_NAME    = UNKNOWN
OBJECT_ID      = 
CENTER_NAME    = EARTH
REF_FRAME      = TEME
TIME_SYSTEM    = UTC
MEAN_ELEMENT_THEORY = SGP/SGP4

EPOCH          = 2026-02-21T11:12:19.588896
MEAN_MOTION    = 14.06215079
ECCENTRICITY   = .0171527
INCLINATION    = 99.9525
RA_OF_ASC_NODE = 56.0131
ARG_OF_PERICENTER = 339.6966
MEAN_ANOMALY   = 19.7434

EPHEMERIS_TYPE = 0
CLASSIFICATION_TYPE = U
NORAD_CAT_ID   = 87565
ELEMENT_SET_NO = 999
REV_AT_EPOCH   = 62637
BSTAR          = .70668E-3
MEAN_MOTION_DOT = .1275E-4
MEAN_MOTION_DDOT = 0

CCSDS_OMM_VERS = 2.0
CREATION_DATE  = 
ORIGINATOR     = 

OBJECT_NAME    = UNKNOWN
OBJECT_ID      = 
CENTER_NAME    = EARTH
REF_FRAME      = TEME
TIME_SYSTEM    = UTC
MEAN_ELEMENT_THEORY = SGP/SGP4

EPOCH          = 2026-02-19T08:07:15.155040
MEAN_MOTION    = 12.68543617
ECCENTRICITY   = .0055839
INCLINATION    = 101.9928
RA_OF_ASC_NODE = 235.3379
ARG_OF_PERICENTER = 118.8645
MEAN_ANOMALY   = 2.8612

EPHEMERIS_TYPE = 0
CLASSIFICATION_TYPE = U
NORAD_CAT_ID   = 87569
ELEMENT_SET_NO = 999
REV_AT_EPOCH   = 56716
BSTAR          = .71391E-4
MEAN_MOTION_DOT = -.34E-6
MEAN_MOTION_DDOT = 0

